{"fetched_at":"2026-07-16T17:46:08.983Z","source":"https://celestrak.org/NORAD/elements/gp.php?GROUP=qianfan&FORMAT=JSON","constellation":"qianfan","records":[{"OBJECT_NAME":"QIANFAN-1","OBJECT_ID":"2024-140A","EPOCH":"2026-07-16T05:11:50.823744","CLASSIFICATION_TYPE":"U","MEAN_MOTION":13.51020391,"ECCENTRICITY":0.0015549,"INCLINATION":88.9733,"RA_OF_ASC_NODE":276.9207,"ARG_OF_PERICENTER":317.2136,"MEAN_ANOMALY":42.7804,"EPHEMERIS_TYPE":0,"NORAD_CAT_ID":60379,"ELEMENT_SET_NO":999,"REV_AT_EPOCH":9644,"BSTAR":0.00014150107,"MEAN_MOTION_DOT":0.00000103,"MEAN_MOTION_DDOT":0},{"OBJECT_NAME":"QIANFAN-2","OBJECT_ID":"2024-140B","EPOCH":"2026-07-16T05:53:26.584512","CLASSIFICATION_TYPE":"U","MEAN_MOTION":13.51016183,"ECCENTRICITY":0.00103859,"INCLINATION":88.9719,"RA_OF_ASC_NODE":276.7278,"ARG_OF_PERICENTER":285.7992,"MEAN_ANOMALY":74.2013,"EPHEMERIS_TYPE":0,"NORAD_CAT_ID":60380,"ELEMENT_SET_NO":999,"REV_AT_EPOCH":9650,"BSTAR":0.00014291775,"MEAN_MOTION_DOT":0.00000104,"MEAN_MOTION_DDOT":0},{"OBJECT_NAME":"QIANFAN-3","OBJECT_ID":"2024-140C","EPOCH":"2026-07-16T06:05:14.282592","CLASSIFICATION_TYPE":"U","MEAN_MOTION":13.51017238,"ECCENTRICITY":0.00116367,"INCLINATION":88.9712,"RA_OF_ASC_NODE":276.8432,"ARG_OF_PERICENTER":300.7603,"MEAN_ANOMALY":59.2401,"EPHEMERIS_TYPE":0,"NORAD_CAT_ID":60381,"ELEMENT_SET_NO":999,"REV_AT_EPOCH":9641,"BSTAR":0.00015677116,"MEAN_MOTION_DOT":0.00000113,"MEAN_MOTION_DDOT":0},{"OBJECT_NAME":"QIANFAN-4","OBJECT_ID":"2024-140D","EPOCH":"2026-07-16T05:29:34.408608","CLASSIFICATION_TYPE":"U","MEAN_MOTION":13.5102028,"ECCENTRICITY":0.00106324,"INCLINATION":88.9736,"RA_OF_ASC_NODE":276.7977,"ARG_OF_PERICENTER":289.0188,"MEAN_ANOMALY":70.9811,"EPHEMERIS_TYPE":0,"NORAD_CAT_ID":60382,"ELEMENT_SET_NO":999,"REV_AT_EPOCH":9653,"BSTAR":0.00015132284,"MEAN_MOTION_DOT":0.0000011,"MEAN_MOTION_DDOT":0},{"OBJECT_NAME":"QIANFAN-5","OBJECT_ID":"2024-140E","EPOCH":"2026-07-16T04:54:07.708896","CLASSIFICATION_TYPE":"U","MEAN_MOTION":13.51010885,"ECCENTRICITY":0.00131106,"INCLINATION":88.9711,"RA_OF_ASC_NODE":276.873,"ARG_OF_PERICENTER":313.7786,"MEAN_ANOMALY":46.2279,"EPHEMERIS_TYPE":0,"NORAD_CAT_ID":60383,"ELEMENT_SET_NO":999,"REV_AT_EPOCH":9639,"BSTAR":0.00015063215,"MEAN_MOTION_DOT":0.00000109,"MEAN_MOTION_DDOT":0},{"OBJECT_NAME":"QIANFAN-6","OBJECT_ID":"2024-140F","EPOCH":"2026-07-16T05:23:40.089984","CLASSIFICATION_TYPE":"U","MEAN_MOTION":13.5101908,"ECCENTRICITY":0.00108204,"INCLINATION":88.9738,"RA_OF_ASC_NODE":276.6755,"ARG_OF_PERICENTER":296.246,"MEAN_ANOMALY":63.7578,"EPHEMERIS_TYPE":0,"NORAD_CAT_ID":60384,"ELEMENT_SET_NO":999,"REV_AT_EPOCH":9659,"BSTAR":0.00013879655,"MEAN_MOTION_DOT":0.00000102,"MEAN_MOTION_DDOT":0},{"OBJECT_NAME":"QIANFAN-7","OBJECT_ID":"2024-140G","EPOCH":"2026-07-16T06:03:42.022080","CLASSIFICATION_TYPE":"U","MEAN_MOTION":14.27865122,"ECCENTRICITY":0.00169573,"INCLINATION":88.9767,"RA_OF_ASC_NODE":268.36,"ARG_OF_PERICENTER":58.5273,"MEAN_ANOMALY":301.7576,"EPHEMERIS_TYPE":0,"NORAD_CAT_ID":60385,"ELEMENT_SET_NO":999,"REV_AT_EPOCH":10114,"BSTAR":0.00011008003,"MEAN_MOTION_DOT":0.00000287,"MEAN_MOTION_DDOT":0},{"OBJECT_NAME":"QIANFAN-8","OBJECT_ID":"2024-140H","EPOCH":"2026-07-16T05:35:35.745504","CLASSIFICATION_TYPE":"U","MEAN_MOTION":13.51015431,"ECCENTRICITY":0.00142954,"INCLINATION":88.9739,"RA_OF_ASC_NODE":276.9148,"ARG_OF_PERICENTER":298.061,"MEAN_ANOMALY":61.9095,"EPHEMERIS_TYPE":0,"NORAD_CAT_ID":60386,"ELEMENT_SET_NO":999,"REV_AT_EPOCH":9644,"BSTAR":0.00013972484,"MEAN_MOTION_DOT":0.00000102,"MEAN_MOTION_DDOT":0},{"OBJECT_NAME":"QIANFAN-9","OBJECT_ID":"2024-140J","EPOCH":"2026-07-16T04:59:54.317184","CLASSIFICATION_TYPE":"U","MEAN_MOTION":13.51021057,"ECCENTRICITY":0.00139802,"INCLINATION":88.9737,"RA_OF_ASC_NODE":276.9884,"ARG_OF_PERICENTER":297.8921,"MEAN_ANOMALY":62.0814,"EPHEMERIS_TYPE":0,"NORAD_CAT_ID":60387,"ELEMENT_SET_NO":999,"REV_AT_EPOCH":9642,"BSTAR":0.00013352136,"MEAN_MOTION_DOT":9.8e-7,"MEAN_MOTION_DDOT":0},{"OBJECT_NAME":"QIANFAN-10","OBJECT_ID":"2024-140K","EPOCH":"2026-07-16T05:05:50.496864","CLASSIFICATION_TYPE":"U","MEAN_MOTION":13.51022303,"ECCENTRICITY":0.00123577,"INCLINATION":88.9748,"RA_OF_ASC_NODE":276.3576,"ARG_OF_PERICENTER":271.2392,"MEAN_ANOMALY":88.7343,"EPHEMERIS_TYPE":0,"NORAD_CAT_ID":60388,"ELEMENT_SET_NO":999,"REV_AT_EPOCH":9655,"BSTAR":0.00016384855,"MEAN_MOTION_DOT":0.00000118,"MEAN_MOTION_DDOT":0},{"OBJECT_NAME":"QIANFAN-11","OBJECT_ID":"2024-140L","EPOCH":"2026-07-16T05:59:14.650368","CLASSIFICATION_TYPE":"U","MEAN_MOTION":13.510162,"ECCENTRICITY":0.0012017,"INCLINATION":88.9673,"RA_OF_ASC_NODE":276.7788,"ARG_OF_PERICENTER":297.9001,"MEAN_ANOMALY":62.0933,"EPHEMERIS_TYPE":0,"NORAD_CAT_ID":60389,"ELEMENT_SET_NO":999,"REV_AT_EPOCH":9621,"BSTAR":0.00015459324,"MEAN_MOTION_DOT":0.00000112,"MEAN_MOTION_DDOT":0},{"OBJECT_NAME":"QIANFAN-12","OBJECT_ID":"2024-140M","EPOCH":"2026-07-16T06:28:57.713952","CLASSIFICATION_TYPE":"U","MEAN_MOTION":13.51018361,"ECCENTRICITY":0.00109739,"INCLINATION":88.9716,"RA_OF_ASC_NODE":276.9139,"ARG_OF_PERICENTER":308.0031,"MEAN_ANOMALY":52.0128,"EPHEMERIS_TYPE":0,"NORAD_CAT_ID":60390,"ELEMENT_SET_NO":999,"REV_AT_EPOCH":9634,"BSTAR":0.00012342348,"MEAN_MOTION_DOT":9.2e-7,"MEAN_MOTION_DDOT":0},{"OBJECT_NAME":"QIANFAN-13","OBJECT_ID":"2024-140N","EPOCH":"2026-07-16T05:47:25.705536","CLASSIFICATION_TYPE":"U","MEAN_MOTION":13.51018432,"ECCENTRICITY":0.001085,"INCLINATION":88.9728,"RA_OF_ASC_NODE":277.0429,"ARG_OF_PERICENTER":311.3391,"MEAN_ANOMALY":48.6826,"EPHEMERIS_TYPE":0,"NORAD_CAT_ID":60391,"ELEMENT_SET_NO":999,"REV_AT_EPOCH":9636,"BSTAR":0.00013468522,"MEAN_MOTION_DOT":9.9e-7,"MEAN_MOTION_DDOT":0},{"OBJECT_NAME":"QIANFAN-14","OBJECT_ID":"2024-140P","EPOCH":"2026-07-16T06:23:05.437824","CLASSIFICATION_TYPE":"U","MEAN_MOTION":13.51011982,"ECCENTRICITY":0.00145159,"INCLINATION":88.9707,"RA_OF_ASC_NODE":276.8924,"ARG_OF_PERICENTER":309.7269,"MEAN_ANOMALY":50.2602,"EPHEMERIS_TYPE":0,"NORAD_CAT_ID":60392,"ELEMENT_SET_NO":999,"REV_AT_EPOCH":9637,"BSTAR":0.00013336969,"MEAN_MOTION_DOT":9.8e-7,"MEAN_MOTION_DDOT":0},{"OBJECT_NAME":"QIANFAN-15","OBJECT_ID":"2024-140Q","EPOCH":"2026-07-16T04:48:11.852352","CLASSIFICATION_TYPE":"U","MEAN_MOTION":13.51012411,"ECCENTRICITY":0.00101033,"INCLINATION":88.9731,"RA_OF_ASC_NODE":276.907,"ARG_OF_PERICENTER":295.0106,"MEAN_ANOMALY":64.9995,"EPHEMERIS_TYPE":0,"NORAD_CAT_ID":60393,"ELEMENT_SET_NO":999,"REV_AT_EPOCH":9635,"BSTAR":0.0001320973,"MEAN_MOTION_DOT":9.7e-7,"MEAN_MOTION_DDOT":0},{"OBJECT_NAME":"QIANFAN-16","OBJECT_ID":"2024-140R","EPOCH":"2026-07-16T06:17:06.640224","CLASSIFICATION_TYPE":"U","MEAN_MOTION":13.51020409,"ECCENTRICITY":0.00125677,"INCLINATION":88.9734,"RA_OF_ASC_NODE":277.0268,"ARG_OF_PERICENTER":314.9966,"MEAN_ANOMALY":45.0166,"EPHEMERIS_TYPE":0,"NORAD_CAT_ID":60394,"ELEMENT_SET_NO":999,"REV_AT_EPOCH":9627,"BSTAR":0.0001413713,"MEAN_MOTION_DOT":0.00000103,"MEAN_MOTION_DDOT":0}]}
