QIANFAN-1               
1 60379U 24140A   26197.21656046  .00000103  00000+0  14150-3 0  9998
2 60379  88.9733 276.9207 0015549 317.2136  42.7804 13.51020391 96448
QIANFAN-2               
1 60380U 24140B   26197.24544658  .00000104  00000+0  14292-3 0  9996
2 60380  88.9719 276.7278 0010385 285.7992  74.2013 13.51016183 96505
QIANFAN-3               
1 60381U 24140C   26197.25363753  .00000113  00000+0  15677-3 0  9991
2 60381  88.9712 276.8432 0011636 300.7603  59.2401 13.51017238 96415
QIANFAN-4               
1 60382U 24140D   26197.22887047  .00000110  00000+0  15132-3 0  9999
2 60382  88.9736 276.7977 0010632 289.0188  70.9811 13.51020280 96536
QIANFAN-5               
1 60383U 24140E   26197.20425589  .00000109  00000+0  15063-3 0  9998
2 60383  88.9711 276.8730 0013110 313.7786  46.2279 13.51010885 96399
QIANFAN-6               
1 60384U 24140F   26197.22476956  .00000102  00000+0  13880-3 0  9993
2 60384  88.9738 276.6755 0010820 296.2460  63.7578 13.51019080 96597
QIANFAN-7               
1 60385U 24140G   26197.25256970  .00000287  00000+0  11008-3 0  9993
2 60385  88.9767 268.3600 0016957  58.5273 301.7576 14.27865122101146
QIANFAN-8               
1 60386U 24140H   26197.23305261  .00000102  00000+0  13972-3 0  9998
2 60386  88.9739 276.9148 0014295 298.0610  61.9095 13.51015431 96440
QIANFAN-9               
1 60387U 24140J   26197.20826756  .00000098  00000+0  13352-3 0  9999
2 60387  88.9737 276.9884 0013980 297.8921  62.0814 13.51021057 96428
QIANFAN-10              
1 60388U 24140K   26197.21239001  .00000118  00000+0  16385-3 0  9994
2 60388  88.9748 276.3576 0012357 271.2392  88.7343 13.51022303 96559
QIANFAN-11              
1 60389U 24140L   26197.24947512  .00000112  00000+0  15459-3 0  9996
2 60389  88.9673 276.7788 0012017 297.9001  62.0933 13.51016200 96213
QIANFAN-12              
1 60390U 24140M   26197.27011243  .00000092  00000+0  12342-3 0  9999
2 60390  88.9716 276.9139 0010973 308.0031  52.0128 13.51018361 96340
QIANFAN-13              
1 60391U 24140N   26197.24126974  .00000099  00000+0  13469-3 0  9993
2 60391  88.9728 277.0429 0010850 311.3391  48.6826 13.51018432 96365
QIANFAN-14              
1 60392U 24140P   26197.26603516  .00000098  00000+0  13337-3 0  9991
2 60392  88.9707 276.8924 0014515 309.7269  50.2602 13.51011982 96372
QIANFAN-15              
1 60393U 24140Q   26197.20013718  .00000097  00000+0  13210-3 0  9994
2 60393  88.9731 276.9070 0010103 295.0106  64.9995 13.51012411 96352
QIANFAN-16              
1 60394U 24140R   26197.26188241  .00000103  00000+0  14137-3 0  9992
2 60394  88.9734 277.0268 0012567 314.9966  45.0166 13.51020409 96275
